[
    {
        "Altitude(m)": 617719.7275197584,
        "Argument of Periapsis(deg)": 0.0,
        "Eccentricity": 0.0,
        "Inclination(deg)": 60.0,
        "Latitude(deg)": -41.102522550041634,
        "Longitude(deg)": 55.09469270883704,
        "Mean Anomaly(deg)": -130.9091,
        "RAAN(deg)": 305.0,
        "Satellite Name": "Test1 1356",
        "Satellite Number": 1356,
        "Semi-Major Axis(m)": 6980739.136638005,
        "Time(s)": 0
    },
    {
        "Altitude(m)": 617911.2631630586,
        "Argument of Periapsis(deg)": 0.00010418945913296404,
        "Eccentricity": 0.0,
        "Inclination(deg)": 60.0,
        "Latitude(deg)": -41.56571407767734,
        "Longitude(deg)": 55.59909909500573,
        "Mean Anomaly(deg)": -130.28899385453815,
        "RAAN(deg)": 304.99957995086027,
        "Satellite Name": "Test1 1356",
        "Satellite Number": 1356,
        "Semi-Major Axis(m)": 6980739.136638005,
        "Time(s)": 10
    }
]